[{"OBJECT_NAME":"STARLINK-30766","OBJECT_ID":"2023-162H","EPOCH":"2026-03-09T03:52:36.485760","MEAN_MOTION":15.27584532,"ECCENTRICITY":0.00013575,"INCLINATION":43.0041,"RA_OF_ASC_NODE":132.2993,"ARG_OF_PERICENTER":242.5266,"MEAN_ANOMALY":117.5447,"EPHEMERIS_TYPE":0,"CLASSIFICATION_TYPE":"U","NORAD_CAT_ID":58125,"ELEMENT_SET_NO":999,"REV_AT_EPOCH":13226,"BSTAR":8.7559593e-5,"MEAN_MOTION_DOT":2.148e-5,"MEAN_MOTION_DDOT":0},{"OBJECT_NAME":"FLOCK 4G-31","OBJECT_ID":"2025-009AV","EPOCH":"2026-03-09T17:55:44.365728","MEAN_MOTION":15.26963037,"ECCENTRICITY":5.975e-5,"INCLINATION":97.4007,"RA_OF_ASC_NODE":151.027,"ARG_OF_PERICENTER":42.5998,"MEAN_ANOMALY":317.5288,"EPHEMERIS_TYPE":0,"CLASSIFICATION_TYPE":"U","NORAD_CAT_ID":62652,"ELEMENT_SET_NO":999,"REV_AT_EPOCH":6372,"BSTAR":0.00048078603,"MEAN_MOTION_DOT":0.00012662,"MEAN_MOTION_DDOT":0}]
